[{"OBJECT_NAME":"HAWK-C","OBJECT_ID":"2018-099AT","EPOCH":"2026-03-09T16:08:34.251360","MEAN_MOTION":15.26407167,"ECCENTRICITY":0.00403625,"INCLINATION":97.4027,"RA_OF_ASC_NODE":122.6817,"ARG_OF_PERICENTER":277.4052,"MEAN_ANOMALY":82.2601,"EPHEMERIS_TYPE":0,"CLASSIFICATION_TYPE":"U","NORAD_CAT_ID":43799,"ELEMENT_SET_NO":999,"REV_AT_EPOCH":39872,"BSTAR":0.00035662773,"MEAN_MOTION_DOT":9.431e-5,"MEAN_MOTION_DDOT":0},{"OBJECT_NAME":"STARLINK-31353","OBJECT_ID":"2024-031R","EPOCH":"2026-03-09T21:34:31.440864","MEAN_MOTION":15.30176283,"ECCENTRICITY":0.00011312,"INCLINATION":53.1606,"RA_OF_ASC_NODE":295.8328,"ARG_OF_PERICENTER":122.6998,"MEAN_ANOMALY":237.4112,"EPHEMERIS_TYPE":0,"CLASSIFICATION_TYPE":"U","NORAD_CAT_ID":58980,"ELEMENT_SET_NO":999,"REV_AT_EPOCH":11654,"BSTAR":0.00016035444,"MEAN_MOTION_DOT":4.39e-5,"MEAN_MOTION_DDOT":0}]
